OBJECT_NAME,OBJECT_ID,EPOCH,MEAN_MOTION,ECCENTRICITY,INCLINATION,RA_OF_ASC_NODE,ARG_OF_PERICENTER,MEAN_ANOMALY,EPHEMERIS_TYPE,CLASSIFICATION_TYPE,NORAD_CAT_ID,ELEMENT_SET_NO,REV_AT_EPOCH,BSTAR,MEAN_MOTION_DOT,MEAN_MOTION_DDOT
ONEWEB-0522,2022-138AD,2026-07-13T05:21:45.741312,13.19735053,.00019115,87.9213,299.7724,121.6547,238.4772,0,U,54140,999,18024,-.7055579E-2,-.2811E-4,0
ONEWEB-0523,2022-138AE,2026-07-12T17:03:38.952864,13.20772638,.00023299,87.9187,269.3556,80.5413,279.5983,0,U,54141,999,18267,.21496182E-4,.22E-6,0
ONEWEB-0524,2022-138AF,2026-07-13T00:05:28.168800,13.20772338,.00029274,87.9187,269.2937,96.2376,263.9091,0,U,54142,999,18271,.5452793E-4,.35E-6,0
ONEWEB-0525,2022-138AG,2026-07-13T07:38:13.721568,13.19723087,.00021474,87.9196,299.7626,111.7971,248.3391,0,U,54143,999,18027,-.36975402E-4,-.2E-7,0
ONEWEB-0526,2022-138AH,2026-07-13T06:36:49.307616,13.19723509,.00021294,87.9193,299.7720,103.7701,256.3669,0,U,54144,999,18024,-.12530898E-3,-.37E-6,0
ONEWEB-0529,2022-138AJ,2026-07-13T06:41:23.336448,13.19726220,.00020522,87.9187,299.7782,108.1040,252.0317,0,U,54145,999,18026,-.12080696E-4,.8E-7,0
ONEWEB-0531,2022-138AK,2026-07-12T18:18:47.745504,13.20773364,.00026121,87.9191,269.3386,81.2048,278.9381,0,U,54146,999,18268,.22198776E-3,.103E-5,0
ONEWEB-0535,2022-138AL,2026-07-13T07:29:07.729728,13.19727178,.0001951,87.9190,299.7590,91.8881,268.2476,0,U,54147,999,18028,.23849309E-3,.108E-5,0
ONEWEB-0536,2022-138AM,2026-07-13T04:53:56.538240,13.20772748,.00028114,87.9174,269.2705,82.6752,277.4700,0,U,54148,999,18273,-.10072965E-3,-.28E-6,0
ONEWEB-0527,2022-166A,2026-07-12T12:50:18.884256,13.21827284,.00021318,87.9236,238.9522,97.9354,262.2022,0,U,54642,999,17488,.15506436E-3,.77E-6,0
ONEWEB-0528,2022-166B,2026-07-12T12:51:31.404960,13.21825889,.00021529,87.9239,238.9547,103.1151,257.0223,0,U,54643,999,17489,.20821845E-3,.99E-6,0
ONEWEB-0539,2022-166C,2026-07-12T22:51:01.075392,13.21824099,.00018715,87.9241,238.8457,95.1898,264.9450,0,U,54644,999,17494,.14705757E-3,.74E-6,0
ONEWEB-0540,2022-166D,2026-07-12T15:44:54.098880,13.21824163,.00019314,87.9231,238.9333,94.6966,265.4389,0,U,54645,999,17489,-.1589666E-3,-.53E-6,0
ONEWEB-0542,2022-166E,2026-07-12T23:05:34.665792,13.21826190,.00017563,87.9242,238.8425,93.6231,266.5104,0,U,54646,999,17494,.10049576E-3,.55E-6,0
ONEWEB-0545,2022-166F,2026-07-12T13:09:42.020928,13.21825761,.0001582,87.9235,238.9345,86.5396,273.5919,0,U,54647,999,17485,.10291E-3,.56E-6,0
ONEWEB-0580,2022-166G,2026-07-12T16:11:20.002848,13.21823979,.00018092,87.9248,238.9065,87.8377,272.2964,0,U,54648,999,17491,-.62025517E-4,-.13E-6,0
ONEWEB-0582,2022-166H,2026-07-12T15:22:52.819968,13.21853740,.00019914,87.9238,238.9082,88.4259,271.7104,0,U,54649,999,17488,.21228422E-2,.89E-5,0
ONEWEB-0583,2022-166J,2026-07-12T15:39:52.764192,13.21826009,.00019584,87.9235,238.9294,94.8666,265.2691,0,U,54650,999,17489,-.4009903E-5,.11E-6,0
ONEWEB-0584,2022-166K,2026-07-12T16:08:55.726944,13.21824640,.00020628,87.9236,238.9096,95.5210,264.6159,0,U,54651,999,17488,.12795123E-4,.18E-6,0
ONEWEB-0585,2022-166L,2026-07-12T13:04:49.122336,13.21823682,.0002474,87.9253,238.9216,91.4713,268.6705,0,U,54652,999,17487,.18242E-3,.88E-6,0
ONEWEB-0586,2022-166M,2026-07-12T15:13:12.703584,13.21832732,.00023624,87.9203,238.9360,84.6811,275.4592,0,U,54653,999,17488,-.49855637E-3,-.193E-5,0
ONEWEB-0587,2022-166N,2026-07-12T15:27:46.306944,13.21825770,.0002373,87.9244,238.9053,101.7378,258.4022,0,U,54654,999,17504,-.87226466E-4,-.23E-6,0
ONEWEB-0589,2022-166P,2026-07-12T15:08:23.502048,13.21825720,.00014716,87.9224,238.9181,75.9182,284.2115,0,U,54655,999,17490,.85210757E-4,.48E-6,0
ONEWEB-0590,2022-166Q,2026-07-12T23:00:30.898080,13.21826234,.00023472,87.9240,238.8447,84.7323,275.4078,0,U,54656,999,17493,.16886226E-3,.83E-6,0
ONEWEB-0591,2022-166R,2026-07-12T12:23:38.344992,13.21828589,.0002074,87.9235,238.9448,94.2006,265.9365,0,U,54657,999,17490,.14616086E-3,.73E-6,0
ONEWEB-0592,2022-166S,2026-07-12T16:06:29.949408,13.21824027,.00020312,87.9242,238.8945,95.7123,264.4242,0,U,54658,999,17480,.90161374E-4,.5E-6,0
ONEWEB-0593,2022-166T,2026-07-12T12:59:59.997696,13.21825941,.0001904,87.9237,238.9302,97.4417,262.6933,0,U,54659,999,17489,.16428E-3,.81E-6,0
ONEWEB-0594,2022-166U,2026-07-12T15:18:03.551904,13.21824467,.00021635,87.9235,238.9270,100.5567,259.5810,0,U,54660,999,17492,-.1279587E-5,.12E-6,0
ONEWEB-0595,2022-166V,2026-07-12T12:55:09.785280,13.21825677,.0002299,87.9240,238.9303,97.6702,262.4693,0,U,54661,999,17488,.12449E-3,.64E-6,0
ONEWEB-0596,2022-166W,2026-07-12T15:56:48.325344,13.21823863,.00021321,87.9238,238.9140,96.9807,263.1569,0,U,54662,999,17490,.43243305E-4,.31E-6,0
